[{"OBJECT_NAME":"JILIN-1 KUANFU 01C","OBJECT_ID":"2022-048A","EPOCH":"2026-03-09T22:44:12.026688","MEAN_MOTION":15.09601076,"ECCENTRICITY":0.00140886,"INCLINATION":97.5312,"RA_OF_ASC_NODE":147.8831,"ARG_OF_PERICENTER":308.8335,"MEAN_ANOMALY":51.1636,"EPHEMERIS_TYPE":0,"CLASSIFICATION_TYPE":"U","NORAD_CAT_ID":52443,"ELEMENT_SET_NO":999,"REV_AT_EPOCH":21222,"BSTAR":0.00028577595,"MEAN_MOTION_DOT":4.539e-5,"MEAN_MOTION_DDOT":0},{"OBJECT_NAME":"STARLINK-5215","OBJECT_ID":"2022-175B","EPOCH":"2026-03-09T22:32:26.708928","MEAN_MOTION":15.08841247,"ECCENTRICITY":0.00015492,"INCLINATION":53.2175,"RA_OF_ASC_NODE":38.2229,"ARG_OF_PERICENTER":94.6855,"MEAN_ANOMALY":265.4314,"EPHEMERIS_TYPE":0,"CLASSIFICATION_TYPE":"U","NORAD_CAT_ID":54759,"ELEMENT_SET_NO":999,"REV_AT_EPOCH":18002,"BSTAR":-5.6332374e-5,"MEAN_MOTION_DOT":-1.184e-5,"MEAN_MOTION_DDOT":0}]
